MONOLITH                
1 49052U 21068A   26068.54548855  .00008348  00000+0  53656-3 0  9993
2 49052  37.0220 141.2957 0002679 131.6464 228.4511 15.08010119252226
STARLINK-3560           
1 51859U 22022H   26068.05968833 -.00001234  00000+0 -59471-4 0  9991
2 51859  53.2181  11.9550 0001385  97.9020 262.2130 15.08833754223068
